IRIDIUM 26              
1 24903U 97043A   25348.16100707  .00000508  00000+0  16361-3 0  9997
2 24903  86.3959  34.9656 0002116  98.9991 261.1446 14.37328832482591
IRIDIUM 22              
1 24907U 97043E   25348.17086233  .00000427  00000+0  14011-3 0  9999
2 24907  86.3963  38.6559 0002289  95.9330 264.2128 14.36122786482600
DUMMY MASS 1            
1 24925U 97048A   25348.21870207  .00000567  00000+0  59978-4 0  9998
2 24925  86.3346  52.0224 0005124 209.7688 150.3247 14.87184639531889
DUMMY MASS 2            
1 24926U 97048B   25348.21092292  .00000552  00000+0  58634-4 0  9991
2 24926  86.3346  53.6670 0005466 227.4658 132.6106 14.86935110531654
IRIDIUM 29              
1 24944U 97051A   25348.33739447  .00000535  00000+0  17519-3 0  9995
2 24944  86.3953  68.2728 0002287  92.3210 267.8249 14.36664474479135
IRIDIUM 33              
1 24946U 97051C   25348.31026261  .00000458  00000+0  15404-3 0  9993
2 24946  86.3869  67.5624 0007216 194.7886 165.3100 14.35038871478573
IRIDIUM 28              
1 24948U 97051E   25348.26700532  .00000523  00000+0  16807-3 0  9990
2 24948  86.3960  65.7151 0001962 109.6885 250.4525 14.37564341479710
IRIDIUM 36              
1 24967U 97056C   25348.34146162  .00000616  00000+0  19802-3 0  9999
2 24967  86.3961  97.3111 0002151 101.6043 258.5396 14.37785992478102
